{"fetched_at":"2026-07-16T06:42:47.019Z","source":"https://celestrak.org/NORAD/elements/gp.php?NAME=BRO&FORMAT=JSON","constellation":"unseenlabs","records":[{"OBJECT_NAME":"BRO-1","OBJECT_ID":"2019-054A","EPOCH":"2026-07-15T04:06:01.933344","CLASSIFICATION_TYPE":"U","MEAN_MOTION":16.18539543,"ECCENTRICITY":0.0010475,"INCLINATION":44.9803,"RA_OF_ASC_NODE":118.9928,"ARG_OF_PERICENTER":204.991,"MEAN_ANOMALY":155.0501,"EPHEMERIS_TYPE":0,"NORAD_CAT_ID":44495,"ELEMENT_SET_NO":999,"REV_AT_EPOCH":38422,"BSTAR":0.00076518174,"MEAN_MOTION_DOT":0.01393181,"MEAN_MOTION_DDOT":0.000010026129},{"OBJECT_NAME":"BRO-5","OBJECT_ID":"2022-002CF","EPOCH":"2026-07-15T22:46:28.026336","CLASSIFICATION_TYPE":"U","MEAN_MOTION":15.4891057,"ECCENTRICITY":0.00054527,"INCLINATION":97.2986,"RA_OF_ASC_NODE":270.9024,"ARG_OF_PERICENTER":200.4785,"MEAN_ANOMALY":159.6249,"EPHEMERIS_TYPE":0,"NORAD_CAT_ID":51061,"ELEMENT_SET_NO":999,"REV_AT_EPOCH":25070,"BSTAR":0.00035961833,"MEAN_MOTION_DOT":0.00019336,"MEAN_MOTION_DDOT":0},{"OBJECT_NAME":"BRO-6","OBJECT_ID":"2022-047AE","EPOCH":"2026-07-15T21:38:17.326752","CLASSIFICATION_TYPE":"U","MEAN_MOTION":15.52604508,"ECCENTRICITY":0.00027867,"INCLINATION":97.3393,"RA_OF_ASC_NODE":288.5495,"ARG_OF_PERICENTER":306.2898,"MEAN_ANOMALY":53.8097,"EPHEMERIS_TYPE":0,"NORAD_CAT_ID":52422,"ELEMENT_SET_NO":999,"REV_AT_EPOCH":23560,"BSTAR":0.00041644327,"MEAN_MOTION_DOT":0.0002555,"MEAN_MOTION_DDOT":0},{"OBJECT_NAME":"BRO-8","OBJECT_ID":"2023-001C","EPOCH":"2026-07-15T21:45:50.706432","CLASSIFICATION_TYPE":"U","MEAN_MOTION":15.50779326,"ECCENTRICITY":0.00047978,"INCLINATION":97.3186,"RA_OF_ASC_NODE":262.5376,"ARG_OF_PERICENTER":37.3914,"MEAN_ANOMALY":322.7671,"EPHEMERIS_TYPE":0,"NORAD_CAT_ID":55011,"ELEMENT_SET_NO":999,"REV_AT_EPOCH":19665,"BSTAR":0.00035076208,"MEAN_MOTION_DOT":0.00020141,"MEAN_MOTION_DDOT":0},{"OBJECT_NAME":"BRO-11","OBJECT_ID":"2023-174J","EPOCH":"2026-07-15T22:33:57.100608","CLASSIFICATION_TYPE":"U","MEAN_MOTION":15.27594672,"ECCENTRICITY":0.00120174,"INCLINATION":97.3898,"RA_OF_ASC_NODE":273.5232,"ARG_OF_PERICENTER":105.439,"MEAN_ANOMALY":254.8177,"EPHEMERIS_TYPE":0,"NORAD_CAT_ID":58264,"ELEMENT_SET_NO":999,"REV_AT_EPOCH":14914,"BSTAR":0.000096793888,"MEAN_MOTION_DOT":0.00002542,"MEAN_MOTION_DDOT":0},{"OBJECT_NAME":"BRO-13","OBJECT_ID":"2024-043K","EPOCH":"2026-07-15T21:48:03.053952","CLASSIFICATION_TYPE":"U","MEAN_MOTION":14.96652181,"ECCENTRICITY":0.00074145,"INCLINATION":97.8527,"RA_OF_ASC_NODE":328.0237,"ARG_OF_PERICENTER":259.2834,"MEAN_ANOMALY":100.7553,"EPHEMERIS_TYPE":0,"NORAD_CAT_ID":59107,"ELEMENT_SET_NO":999,"REV_AT_EPOCH":12891,"BSTAR":0.000087005081,"MEAN_MOTION_DOT":0.00000933,"MEAN_MOTION_DDOT":0},{"OBJECT_NAME":"BRO-12","OBJECT_ID":"2024-043L","EPOCH":"2026-07-15T23:11:58.064928","CLASSIFICATION_TYPE":"U","MEAN_MOTION":14.96894138,"ECCENTRICITY":0.00070307,"INCLINATION":97.851,"RA_OF_ASC_NODE":328.2515,"ARG_OF_PERICENTER":252.7484,"MEAN_ANOMALY":107.2968,"EPHEMERIS_TYPE":0,"NORAD_CAT_ID":59108,"ELEMENT_SET_NO":999,"REV_AT_EPOCH":12894,"BSTAR":0.000059720073,"MEAN_MOTION_DOT":0.00000626,"MEAN_MOTION_DDOT":0},{"OBJECT_NAME":"BRO-14","OBJECT_ID":"2024-149CM","EPOCH":"2026-07-15T03:35:56.497344","CLASSIFICATION_TYPE":"U","MEAN_MOTION":14.9623587,"ECCENTRICITY":0.00067346,"INCLINATION":97.6864,"RA_OF_ASC_NODE":271.4249,"ARG_OF_PERICENTER":18.0591,"MEAN_ANOMALY":342.0868,"EPHEMERIS_TYPE":0,"NORAD_CAT_ID":60551,"ELEMENT_SET_NO":999,"REV_AT_EPOCH":10417,"BSTAR":0.000086103082,"MEAN_MOTION_DOT":0.00000914,"MEAN_MOTION_DDOT":0},{"OBJECT_NAME":"BRO-15","OBJECT_ID":"2024-149CP","EPOCH":"2026-07-15T22:26:38.033952","CLASSIFICATION_TYPE":"U","MEAN_MOTION":14.96221933,"ECCENTRICITY":0.00077008,"INCLINATION":97.679,"RA_OF_ASC_NODE":271.771,"ARG_OF_PERICENTER":2.0879,"MEAN_ANOMALY":358.0373,"EPHEMERIS_TYPE":0,"NORAD_CAT_ID":60553,"ELEMENT_SET_NO":999,"REV_AT_EPOCH":10430,"BSTAR":0.000029830494,"MEAN_MOTION_DOT":0.00000279,"MEAN_MOTION_DDOT":0},{"OBJECT_NAME":"BRO-16","OBJECT_ID":"2025-009AX","EPOCH":"2026-07-15T18:30:15.463584","CLASSIFICATION_TYPE":"U","MEAN_MOTION":15.24131147,"ECCENTRICITY":0.00022367,"INCLINATION":97.4056,"RA_OF_ASC_NODE":276.9056,"ARG_OF_PERICENTER":153.0693,"MEAN_ANOMALY":207.0661,"EPHEMERIS_TYPE":0,"NORAD_CAT_ID":62654,"ELEMENT_SET_NO":999,"REV_AT_EPOCH":8315,"BSTAR":0.000084858731,"MEAN_MOTION_DOT":0.00001992,"MEAN_MOTION_DDOT":0},{"OBJECT_NAME":"BRO-18","OBJECT_ID":"2025-135Y","EPOCH":"2026-07-15T21:57:09.504576","CLASSIFICATION_TYPE":"U","MEAN_MOTION":15.2217573,"ECCENTRICITY":0.00024984,"INCLINATION":97.4657,"RA_OF_ASC_NODE":311.7272,"ARG_OF_PERICENTER":115.2134,"MEAN_ANOMALY":244.9361,"EPHEMERIS_TYPE":0,"NORAD_CAT_ID":64550,"ELEMENT_SET_NO":999,"REV_AT_EPOCH":5924,"BSTAR":0.000089890517,"MEAN_MOTION_DOT":0.00001992,"MEAN_MOTION_DDOT":0},{"OBJECT_NAME":"BRO-17","OBJECT_ID":"2025-276G","EPOCH":"2026-07-15T22:06:26.813088","CLASSIFICATION_TYPE":"U","MEAN_MOTION":15.18160879,"ECCENTRICITY":0.00051335,"INCLINATION":97.4182,"RA_OF_ASC_NODE":269.475,"ARG_OF_PERICENTER":255.9433,"MEAN_ANOMALY":104.1231,"EPHEMERIS_TYPE":0,"NORAD_CAT_ID":66672,"ELEMENT_SET_NO":999,"REV_AT_EPOCH":3475,"BSTAR":0.000087026197,"MEAN_MOTION_DOT":0.00001711,"MEAN_MOTION_DDOT":0},{"OBJECT_NAME":"BRO-20","OBJECT_ID":"2025-276J","EPOCH":"2026-07-15T21:31:47.805312","CLASSIFICATION_TYPE":"U","MEAN_MOTION":15.18327577,"ECCENTRICITY":0.00047687,"INCLINATION":97.4161,"RA_OF_ASC_NODE":269.4393,"ARG_OF_PERICENTER":259.7349,"MEAN_ANOMALY":100.3348,"EPHEMERIS_TYPE":0,"NORAD_CAT_ID":66674,"ELEMENT_SET_NO":999,"REV_AT_EPOCH":3475,"BSTAR":0.000077784651,"MEAN_MOTION_DOT":0.00001529,"MEAN_MOTION_DDOT":0},{"OBJECT_NAME":"BRO-19","OBJECT_ID":"2026-067G","EPOCH":"2026-07-15T20:07:21.012096","CLASSIFICATION_TYPE":"U","MEAN_MOTION":15.18989444,"ECCENTRICITY":0.00025238,"INCLINATION":97.4494,"RA_OF_ASC_NODE":154.8891,"ARG_OF_PERICENTER":107.2645,"MEAN_ANOMALY":252.8866,"EPHEMERIS_TYPE":0,"NORAD_CAT_ID":68422,"ELEMENT_SET_NO":999,"REV_AT_EPOCH":1629,"BSTAR":0.000084642957,"MEAN_MOTION_DOT":0.00001703,"MEAN_MOTION_DDOT":0},{"OBJECT_NAME":"BRO-21","OBJECT_ID":"2026-100AD","EPOCH":"2026-07-15T12:51:16.647840","CLASSIFICATION_TYPE":"U","MEAN_MOTION":15.21629814,"ECCENTRICITY":0.0006794,"INCLINATION":97.401,"RA_OF_ASC_NODE":93.965,"ARG_OF_PERICENTER":327.2811,"MEAN_ANOMALY":32.8003,"EPHEMERIS_TYPE":0,"NORAD_CAT_ID":69007,"ELEMENT_SET_NO":999,"REV_AT_EPOCH":1111,"BSTAR":0.00017995,"MEAN_MOTION_DOT":0.00003997,"MEAN_MOTION_DDOT":0},{"OBJECT_NAME":"BRO-22","OBJECT_ID":"2026-132C","EPOCH":"2026-07-15T04:11:00.735648","CLASSIFICATION_TYPE":"U","MEAN_MOTION":14.99807407,"ECCENTRICITY":0.00165207,"INCLINATION":97.6828,"RA_OF_ASC_NODE":259.4955,"ARG_OF_PERICENTER":181.3074,"MEAN_ANOMALY":178.8109,"EPHEMERIS_TYPE":0,"NORAD_CAT_ID":69504,"ELEMENT_SET_NO":999,"REV_AT_EPOCH":497,"BSTAR":0.00012301167,"MEAN_MOTION_DOT":0.00001466,"MEAN_MOTION_DDOT":0}]}
