BRO-1                   
1 44495U 19054A   26196.17085571  .01393181  10026-4  76518-3 0  9992
2 44495  44.9803 118.9928 0010475 204.9910 155.0501 16.18539543384227
BRO-5                   
1 51061U 22002CF  26196.94893549  .00019336  00000+0  35962-3 0  9993
2 51061  97.2986 270.9024 0005452 200.4785 159.6249 15.48910570250702
BRO-6                   
1 52422U 22047AE  26196.90158943  .00025550  00000+0  41644-3 0  9991
2 52422  97.3393 288.5495 0002786 306.2898  53.8097 15.52604508235605
BRO-8                   
1 55011U 23001C   26196.90683688  .00020141  00000+0  35076-3 0  9991
2 55011  97.3186 262.5376 0004797  37.3914 322.7671 15.50779326196653
BRO-11                  
1 58264U 23174J   26196.94024422  .00002542  00000+0  96794-4 0  9994
2 58264  97.3898 273.5232 0012017 105.4390 254.8177 15.27594672149149
BRO-13                  
1 59107U 24043K   26196.90836868  .00000933  00000+0  87005-4 0  9995
2 59107  97.8527 328.0237 0007414 259.2834 100.7553 14.96652181128911
BRO-12                  
1 59108U 24043L   26196.96664427  .00000626  00000+0  59720-4 0  9994
2 59108  97.8510 328.2515 0007030 252.7484 107.2968 14.96894138128943
BRO-14                  
1 60551U 24149CM  26196.14995946  .00000914  00000+0  86103-4 0  9993
2 60551  97.6864 271.4249 0006734  18.0591 342.0868 14.96235870104171
BRO-15                  
1 60553U 24149CP  26196.93516243  .00000279  00000+0  29830-4 0  9999
2 60553  97.6790 271.7710 0007700   2.0879 358.0373 14.96221933104301
BRO-16                  
1 62654U 25009AX  26196.77101231  .00001992  00000+0  84859-4 0  9993
2 62654  97.4056 276.9056 0002236 153.0693 207.0661 15.24131147 83159
BRO-18                  
1 64550U 25135Y   26196.91469334  .00001992  00000+0  89891-4 0  9998
2 64550  97.4657 311.7272 0002498 115.2134 244.9361 15.22175730 59245
BRO-17                  
1 66672U 25276G   26196.92114367  .00001711  00000+0  87026-4 0  9992
2 66672  97.4182 269.4750 0005133 255.9433 104.1231 15.18160879 34753
BRO-20                  
1 66674U 25276J   26196.89708108  .00001529  00000+0  77785-4 0  9990
2 66674  97.4161 269.4393 0004768 259.7349 100.3348 15.18327577 34753
BRO-19                  
1 68422U 26067G   26196.83843764  .00001703  00000+0  84643-4 0  9999
2 68422  97.4494 154.8891 0002523 107.2645 252.8866 15.18989444 16292
BRO-21                  
1 69007U 26100AD  26196.53560935  .00003997  00000+0  17995-3 0  9992
2 69007  97.4010  93.9650 0006794 327.2811  32.8003 15.21629814 11116
BRO-22                  
1 69504U 26132C   26196.17431407  .00001466  00000+0  12301-3 0  9995
2 69504  97.6828 259.4955 0016520 181.3074 178.8109 14.99807407  4976
